{
  "type": "FeatureCollection",
  "features": [
    {
      "type": "Feature",
      "properties": {
        "norad_id": 38867,
        "name": "INTELSAT 23 (IS-23)",
        "group": "intelsat",
        "lat": -0.01966645026837915,
        "lon": -102.36491588554395,
        "alt_km": 35784.761098177514,
        "timestamp": "2025-12-21T14:40:47.578535+00:00",
        "meta_object_name": "INTELSAT 23 (IS-23)",
        "meta_object_id": "2012-057A",
        "meta_epoch": "2025-12-21T06:05:55.169664",
        "meta_mean_motion": 1.00269368,
        "meta_eccentricity": 6.501e-05,
        "meta_inclination": 0.016,
        "meta_ra_of_asc_node": 65.1862,
        "meta_arg_of_pericenter": 234.6608,
        "meta_mean_anomaly": 188.7337,
        "meta_ephemeris_type": 0,
        "meta_classification_type": "U",
        "meta_norad_cat_id": 38867,
        "meta_element_set_no": 999,
        "meta_rev_at_epoch": 4817,
        "meta_bstar": 0,
        "meta_mean_motion_dot": -2.62e-06,
        "meta_mean_motion_ddot": 0,
        "tle_line1": "1 38867U 12057A   25355.25411076 -.00000262  00000+0  00000+0 0  9992",
        "tle_line2": "2 38867   0.0160  65.1862 0000650 234.6608 188.7337  1.00269368 48171"
      },
      "geometry": {
        "type": "Point",
        "coordinates": [
          -102.36491588554395,
          -0.01966645026837915
        ]
      }
    },
    {
      "type": "Feature",
      "properties": {
        "norad_id": 39360,
        "name": "FM-6",
        "group": "intelsat",
        "lat": 0.007389489863876854,
        "lon": -165.52769026611895,
        "alt_km": 35773.01719497077,
        "timestamp": "2025-12-21T14:40:47.578547+00:00",
        "meta_object_name": "FM-6",
        "meta_object_id": "2013-058A",
        "meta_epoch": "2025-12-21T04:48:07.324992",
        "meta_mean_motion": 1.00273634,
        "meta_eccentricity": 0.00030764,
        "meta_inclination": 0.0118,
        "meta_ra_of_asc_node": 62.4379,
        "meta_arg_of_pericenter": 118.2763,
        "meta_mean_anomaly": 225.1818,
        "meta_ephemeris_type": 0,
        "meta_classification_type": "U",
        "meta_norad_cat_id": 39360,
        "meta_element_set_no": 999,
        "meta_rev_at_epoch": 4428,
        "meta_bstar": 0,
        "meta_mean_motion_dot": 6e-08,
        "meta_mean_motion_ddot": 0,
        "tle_line1": "1 39360U 13058A   25355.20008478  .00000006  00000+0  00000+0 0  9991",
        "tle_line2": "2 39360   0.0118  62.4379 0003076 118.2763 225.1818  1.00273634 44289"
      },
      "geometry": {
        "type": "Point",
        "coordinates": [
          -165.52769026611895,
          0.007389489863876854
        ]
      }
    },
    {
      "type": "Feature",
      "properties": {
        "norad_id": 40271,
        "name": "INTELSAT 30 (IS-30)",
        "group": "intelsat",
        "lat": -0.014893198375295848,
        "lon": -144.41446889438677,
        "alt_km": 35790.05503492381,
        "timestamp": "2025-12-21T14:40:47.578559+00:00",
        "meta_object_name": "INTELSAT 30 (IS-30)",
        "meta_object_id": "2014-062A",
        "meta_epoch": "2025-12-21T02:28:25.779360",
        "meta_mean_motion": 1.00271873,
        "meta_eccentricity": 0.00016539,
        "meta_inclination": 0.0153,
        "meta_ra_of_asc_node": 22.7027,
        "meta_arg_of_pericenter": 68.3073,
        "meta_mean_anomaly": 300.9758,
        "meta_ephemeris_type": 0,
        "meta_classification_type": "U",
        "meta_norad_cat_id": 40271,
        "meta_element_set_no": 999,
        "meta_rev_at_epoch": 500,
        "meta_bstar": 0,
        "meta_mean_motion_dot": -1.28e-06,
        "meta_mean_motion_ddot": 0,
        "tle_line1": "1 40271U 14062A   25355.10307615 -.00000128  00000+0  00000+0 0  9990",
        "tle_line2": "2 40271   0.0153  22.7027 0001653  68.3073 300.9758  1.00271873  5003"
      },
      "geometry": {
        "type": "Point",
        "coordinates": [
          -144.41446889438677,
          -0.014893198375295848
        ]
      }
    },
    {
      "type": "Feature",
      "properties": {
        "norad_id": 40333,
        "name": "DIRECTV 14",
        "group": "intelsat",
        "lat": -0.025620254505020205,
        "lon": -148.59801987665216,
        "alt_km": 35786.465145243965,
        "timestamp": "2025-12-21T14:40:47.578571+00:00",
        "meta_object_name": "DIRECTV 14",
        "meta_object_id": "2014-078B",
        "meta_epoch": "2025-12-21T05:52:41.437056",
        "meta_mean_motion": 1.00270525,
        "meta_eccentricity": 2.554e-05,
        "meta_inclination": 0.0133,
        "meta_ra_of_asc_node": 341.0834,
        "meta_arg_of_pericenter": 139.7294,
        "meta_mean_anomaly": 318.2092,
        "meta_ephemeris_type": 0,
        "meta_classification_type": "U",
        "meta_norad_cat_id": 40333,
        "meta_element_set_no": 999,
        "meta_rev_at_epoch": 4025,
        "meta_bstar": 0,
        "meta_mean_motion_dot": -1.02e-06,
        "meta_mean_motion_ddot": 0,
        "tle_line1": "1 40333U 14078B   25355.24492404 -.00000102  00000+0  00000+0 0  9994",
        "tle_line2": "2 40333   0.0133 341.0834 0000255 139.7294 318.2092  1.00270525 40250"
      },
      "geometry": {
        "type": "Point",
        "coordinates": [
          -148.59801987665216,
          -0.025620254505020205
        ]
      }
    },
    {
      "type": "Feature",
      "properties": {
        "norad_id": 40663,
        "name": "DIRECTV 15",
        "group": "intelsat",
        "lat": -0.012803584896846708,
        "lon": -152.2600362597713,
        "alt_km": 35786.20132969114,
        "timestamp": "2025-12-21T14:40:47.578583+00:00",
        "meta_object_name": "DIRECTV 15",
        "meta_object_id": "2015-026A",
        "meta_epoch": "2025-12-21T04:16:38.932896",
        "meta_mean_motion": 1.00269805,
        "meta_eccentricity": 3.417e-05,
        "meta_inclination": 0.025,
        "meta_ra_of_asc_node": 19.43,
        "meta_arg_of_pericenter": 116.583,
        "meta_mean_anomaly": 275.2713,
        "meta_ephemeris_type": 0,
        "meta_classification_type": "U",
        "meta_norad_cat_id": 40663,
        "meta_element_set_no": 999,
        "meta_rev_at_epoch": 3867,
        "meta_bstar": 0,
        "meta_mean_motion_dot": 0,
        "meta_mean_motion_ddot": 0,
        "tle_line1": "1 40663U 15026A   25355.17822839  .00000000  00000+0  00000+0 0  9991",
        "tle_line2": "2 40663   0.0250  19.4300 0000341 116.5830 275.2713  1.00269805 38679"
      },
      "geometry": {
        "type": "Point",
        "coordinates": [
          -152.2600362597713,
          -0.012803584896846708
        ]
      }
    },
    {
      "type": "Feature",
      "properties": {
        "norad_id": 40664,
        "name": "SKY MEXICO-1",
        "group": "intelsat",
        "lat": -0.034717271210305635,
        "lon": -128.16328338787352,
        "alt_km": 35780.43052150402,
        "timestamp": "2025-12-21T14:40:47.578610+00:00",
        "meta_object_name": "SKY MEXICO-1",
        "meta_object_id": "2015-026B",
        "meta_epoch": "2025-12-21T02:33:02.837376",
        "meta_mean_motion": 1.00271688,
        "meta_eccentricity": 0.00023438,
        "meta_inclination": 0.0148,
        "meta_ra_of_asc_node": 348.6805,
        "meta_arg_of_pericenter": 298.0643,
        "meta_mean_anomaly": 122.688,
        "meta_ephemeris_type": 0,
        "meta_classification_type": "U",
        "meta_norad_cat_id": 40664,
        "meta_element_set_no": 999,
        "meta_rev_at_epoch": 3866,
        "meta_bstar": 0,
        "meta_mean_motion_dot": -2.11e-06,
        "meta_mean_motion_ddot": 0,
        "tle_line1": "1 40664U 15026B   25355.10628284 -.00000211  00000+0  00000+0 0  9998",
        "tle_line2": "2 40664   0.0148 348.6805 0002343 298.0643 122.6880  1.00271688 38666"
      },
      "geometry": {
        "type": "Point",
        "coordinates": [
          -128.16328338787352,
          -0.034717271210305635
        ]
      }
    },
    {
      "type": "Feature",
      "properties": {
        "norad_id": 40874,
        "name": "INTELSAT 34 (IS-34)",
        "group": "intelsat",
        "lat": -0.03180544024030537,
        "lon": -104.87493892932929,
        "alt_km": 35787.114666460795,
        "timestamp": "2025-12-21T14:40:47.578624+00:00",
        "meta_object_name": "INTELSAT 34 (IS-34)",
        "meta_object_id": "2015-039A",
        "meta_epoch": "2025-12-21T04:31:38.456256",
        "meta_mean_motion": 1.00270737,
        "meta_eccentricity": 5.671e-05,
        "meta_inclination": 0.0114,
        "meta_ra_of_asc_node": 322.9713,
        "meta_arg_of_pericenter": 185.716,
        "meta_mean_anomaly": 313.7366,
        "meta_ephemeris_type": 0,
        "meta_classification_type": "U",
        "meta_norad_cat_id": 40874,
        "meta_element_set_no": 999,
        "meta_rev_at_epoch": 3784,
        "meta_bstar": 0,
        "meta_mean_motion_dot": -2.62e-06,
        "meta_mean_motion_ddot": 0,
        "tle_line1": "1 40874U 15039A   25355.18863954 -.00000262  00000+0  00000+0 0  9994",
        "tle_line2": "2 40874   0.0114 322.9713 0000567 185.7160 313.7366  1.00270737 37842"
      },
      "geometry": {
        "type": "Point",
        "coordinates": [
          -104.87493892932929,
          -0.03180544024030537
        ]
      }
    }
  ]
}